ORBCOMM FM06            
1 25118U 97084G   26186.42486906  .00001730  00000+0  50427-3 0  9998
2 25118  45.0146 324.9131 0000704 200.9001 188.9790 14.47612510497031
ORBCOMM FM04            
1 25159U 98007C   26186.78818191  .00000831  00000+0  32952-3 0  9997
2 25159 107.9630 207.7038 0041811 292.9013  66.7717 14.35773946479269
ORBCOMM FM19            
1 25415U 98046C   26186.27855175  .00001291  00000+0  45545-3 0  9995
2 25415  44.9921 157.5632 0003796   2.6105 131.3321 14.39528802459381
ORBCOMM FM20            
1 25416U 98046D   26186.00565869  .00000848  00000+0  32377-3 0  9991
2 25416  44.9918 166.9799 0002210 311.3972  48.6686 14.38089487459359
ORBCOMM FM27            
1 25481U 98053G   26186.51379036  .00000922  00000+0  34056-3 0  9995
2 25481  45.0044 248.3072 0002316 258.1013 101.9576 14.39175182452873
ORBCOMM FM32            
1 25982U 99065C   26186.78146553  .00001019  00000+0  38692-3 0  9998
2 25982  45.0150  85.2236 0004813 144.0761 216.0411 14.37159694389765
ORBCOMM FM109           
1 40086U 14040A   26185.90495355  .00000614  00000+0  16607-3 0  9992
2 40086  47.0042   7.7183 0001836 293.3925  66.6767 14.58865680636930
ORBCOMM FM110           
1 41182U 15081D   26186.66341404  .00000844  00000+0  21466-3 0  9999
2 41182  47.0020 274.0816 0003085 180.2712 179.8173 14.58910727560322
ORBCOMM FM118           
1 41183U 15081E   26186.28684484  .00000574  00000+0  15760-3 0  9996
2 41183  47.0038 276.1970 0002403 135.4149 224.6931 14.58898708560375
ORBCOMM FM112           
1 41184U 15081F   26186.01712582  .00000829  00000+0  21144-3 0  9995
2 41184  46.9970 185.9321 0004107 287.3246  72.7190 14.58926863561558
ORBCOMM FM113           
1 41185U 15081G   26186.40526013  .00000521  00000+0  14646-3 0  9999
2 41185  46.9986 184.4820 0002588 286.6909  73.3693 14.58875601561595
ORBCOMM FM108           
1 41187U 15081J   26186.77834448  .00000895  00000+0  22544-3 0  9995
2 41187  47.0048  94.2965 0003074 288.5070  71.5482 14.58900607562791
ORBCOMM FM117           
1 41188U 15081K   26186.74399741  .00000867  00000+0  21951-3 0  9995
2 41188  47.0011  93.0881 0003527 293.5202  66.5313 14.58888028562836
ORBCOMM FM116           
1 41189U 15081L   26186.03935556  .00000365  00000+0  11324-3 0  9994
2 41189  47.0006 186.2096 0001142 199.7196 160.3646 14.58900291561540
